[{"OBJECT_NAME":"ONEWEB-0298","OBJECT_ID":"2021-075N","EPOCH":"2025-09-05T04:53:16.034784","MEAN_MOTION":13.17650708,"ECCENTRICITY":0.00017668,"INCLINATION":87.9024,"RA_OF_ASC_NODE":62.5685,"ARG_OF_PERICENTER":89.2594,"MEAN_ANOMALY":270.874,"EPHEMERIS_TYPE":0,"CLASSIFICATION_TYPE":"U","NORAD_CAT_ID":49087,"ELEMENT_SET_NO":999,"REV_AT_EPOCH":19609,"BSTAR":0.00015209109,"MEAN_MOTION_DOT":7.2e-7,"MEAN_MOTION_DDOT":0},{"OBJECT_NAME":"ONEWEB-0299","OBJECT_ID":"2021-075P","EPOCH":"2025-09-05T04:55:29.816544","MEAN_MOTION":13.17649629,"ECCENTRICITY":0.0001976,"INCLINATION":87.9038,"RA_OF_ASC_NODE":62.5241,"ARG_OF_PERICENTER":92.1627,"MEAN_ANOMALY":267.973,"EPHEMERIS_TYPE":0,"CLASSIFICATION_TYPE":"U","NORAD_CAT_ID":49088,"ELEMENT_SET_NO":999,"REV_AT_EPOCH":19607,"BSTAR":-0.00014569776,"MEAN_MOTION_DOT":-4.4e-7,"MEAN_MOTION_DDOT":0},{"OBJECT_NAME":"ONEWEB-0300","OBJECT_ID":"2021-075Q","EPOCH":"2025-09-05T04:56:11.340384","MEAN_MOTION":13.12441968,"ECCENTRICITY":0.00018465,"INCLINATION":87.8881,"RA_OF_ASC_NODE":47.2754,"ARG_OF_PERICENTER":83.3952,"MEAN_ANOMALY":276.7387,"EPHEMERIS_TYPE":0,"CLASSIFICATION_TYPE":"U","NORAD_CAT_ID":49089,"ELEMENT_SET_NO":999,"REV_AT_EPOCH":19782,"BSTAR":0.0012401924,"MEAN_MOTION_DOT":4.59e-6,"MEAN_MOTION_DDOT":0},{"OBJECT_NAME":"ONEWEB-0301","OBJECT_ID":"2021-075R","EPOCH":"2025-09-05T04:32:49.537536","MEAN_MOTION":13.12444568,"ECCENTRICITY":0.00018802,"INCLINATION":87.8882,"RA_OF_ASC_NODE":47.2832,"ARG_OF_PERICENTER":80.2958,"MEAN_ANOMALY":279.8382,"EPHEMERIS_TYPE":0,"CLASSIFICATION_TYPE":"U","NORAD_CAT_ID":49090,"ELEMENT_SET_NO":999,"REV_AT_EPOCH":19718,"BSTAR":0.00077476096,"MEAN_MOTION_DOT":2.91e-6,"MEAN_MOTION_DDOT":0},{"OBJECT_NAME":"ONEWEB-0302","OBJECT_ID":"2021-075S","EPOCH":"2025-09-05T04:14:07.245600","MEAN_MOTION":13.12444916,"ECCENTRICITY":0.00016121,"INCLINATION":87.8885,"RA_OF_ASC_NODE":47.2917,"ARG_OF_PERICENTER":106.1699,"MEAN_ANOMALY":253.9607,"EPHEMERIS_TYPE":0,"CLASSIFICATION_TYPE":"U","NORAD_CAT_ID":49091,"ELEMENT_SET_NO":999,"REV_AT_EPOCH":19716,"BSTAR":-0.00057630236,"MEAN_MOTION_DOT":-1.95e-6,"MEAN_MOTION_DDOT":0},{"OBJECT_NAME":"ONEWEB-0304","OBJECT_ID":"2021-075T","EPOCH":"2025-09-05T00:40:21.306432","MEAN_MOTION":13.17648585,"ECCENTRICITY":0.00018482,"INCLINATION":87.9037,"RA_OF_ASC_NODE":62.5904,"ARG_OF_PERICENTER":94.4704,"MEAN_ANOMALY":265.6638,"EPHEMERIS_TYPE":0,"CLASSIFICATION_TYPE":"U","NORAD_CAT_ID":49092,"ELEMENT_SET_NO":999,"REV_AT_EPOCH":19602,"BSTAR":-0.00017136509,"MEAN_MOTION_DOT":-5.4e-7,"MEAN_MOTION_DDOT":0},{"OBJECT_NAME":"ONEWEB-0305","OBJECT_ID":"2021-075U","EPOCH":"2025-09-05T05:58:40.175040","MEAN_MOTION":13.17650859,"ECCENTRICITY":0.00020859,"INCLINATION":87.9039,"RA_OF_ASC_NODE":62.5228,"ARG_OF_PERICENTER":98.892,"MEAN_ANOMALY":261.2448,"EPHEMERIS_TYPE":0,"CLASSIFICATION_TYPE":"U","NORAD_CAT_ID":49093,"ELEMENT_SET_NO":999,"REV_AT_EPOCH":19608,"BSTAR":0.00030903636,"MEAN_MOTION_DOT":1.33e-6,"MEAN_MOTION_DDOT":0},{"OBJECT_NAME":"ONEWEB-0308","OBJECT_ID":"2021-075V","EPOCH":"2025-09-05T04:04:47.188704","MEAN_MOTION":13.12444109,"ECCENTRICITY":0.00017176,"INCLINATION":87.8887,"RA_OF_ASC_NODE":47.2847,"ARG_OF_PERICENTER":92.8806,"MEAN_ANOMALY":267.2519,"EPHEMERIS_TYPE":0,"CLASSIFICATION_TYPE":"U","NORAD_CAT_ID":49094,"ELEMENT_SET_NO":999,"REV_AT_EPOCH":19717,"BSTAR":-0.00098437588,"MEAN_MOTION_DOT":-3.41e-6,"MEAN_MOTION_DDOT":0},{"OBJECT_NAME":"ONEWEB-0309","OBJECT_ID":"2021-075W","EPOCH":"2025-09-05T06:03:31.508064","MEAN_MOTION":13.1764834,"ECCENTRICITY":0.00015228,"INCLINATION":87.9034,"RA_OF_ASC_NODE":62.5395,"ARG_OF_PERICENTER":104.3549,"MEAN_ANOMALY":255.7751,"EPHEMERIS_TYPE":0,"CLASSIFICATION_TYPE":"U","NORAD_CAT_ID":49095,"ELEMENT_SET_NO":999,"REV_AT_EPOCH":19605,"BSTAR":0.00010258851,"MEAN_MOTION_DOT":5.3e-7,"MEAN_MOTION_DDOT":0},{"OBJECT_NAME":"ONEWEB-0310","OBJECT_ID":"2021-075X","EPOCH":"2025-09-05T04:25:48.624384","MEAN_MOTION":13.1244456,"ECCENTRICITY":0.00016433,"INCLINATION":87.888,"RA_OF_ASC_NODE":47.3272,"ARG_OF_PERICENTER":96.6718,"MEAN_ANOMALY":263.4598,"EPHEMERIS_TYPE":0,"CLASSIFICATION_TYPE":"U","NORAD_CAT_ID":49096,"ELEMENT_SET_NO":999,"REV_AT_EPOCH":19780,"BSTAR":0.00022053172,"MEAN_MOTION_DOT":9.2e-7,"MEAN_MOTION_DDOT":0},{"OBJECT_NAME":"ONEWEB-0311","OBJECT_ID":"2021-075Y","EPOCH":"2025-09-05T04:23:54.203136","MEAN_MOTION":13.17649149,"ECCENTRICITY":0.00020928,"INCLINATION":87.903,"RA_OF_ASC_NODE":62.5513,"ARG_OF_PERICENTER":95.1688,"MEAN_ANOMALY":264.9683,"EPHEMERIS_TYPE":0,"CLASSIFICATION_TYPE":"U","NORAD_CAT_ID":49097,"ELEMENT_SET_NO":999,"REV_AT_EPOCH":19609,"BSTAR":0.00036740835,"MEAN_MOTION_DOT":1.56e-6,"MEAN_MOTION_DDOT":0},{"OBJECT_NAME":"ONEWEB-0312","OBJECT_ID":"2021-075Z","EPOCH":"2025-09-05T01:07:04.675296","MEAN_MOTION":13.17647614,"ECCENTRICITY":0.00018757,"INCLINATION":87.9029,"RA_OF_ASC_NODE":62.6108,"ARG_OF_PERICENTER":101.8439,"MEAN_ANOMALY":258.2903,"EPHEMERIS_TYPE":0,"CLASSIFICATION_TYPE":"U","NORAD_CAT_ID":49098,"ELEMENT_SET_NO":999,"REV_AT_EPOCH":19605,"BSTAR":1.9314892e-5,"MEAN_MOTION_DOT":2.0e-7,"MEAN_MOTION_DDOT":0},{"OBJECT_NAME":"ONEWEB-0313","OBJECT_ID":"2021-075AA","EPOCH":"2025-09-05T04:52:52.879584","MEAN_MOTION":13.17649086,"ECCENTRICITY":0.00018206,"INCLINATION":87.9021,"RA_OF_ASC_NODE":62.5913,"ARG_OF_PERICENTER":92.8031,"MEAN_ANOMALY":267.3309,"EPHEMERIS_TYPE":0,"CLASSIFICATION_TYPE":"U","NORAD_CAT_ID":49099,"ELEMENT_SET_NO":999,"REV_AT_EPOCH":19606,"BSTAR":2.6180417e-5,"MEAN_MOTION_DOT":2.3e-7,"MEAN_MOTION_DDOT":0},{"OBJECT_NAME":"ONEWEB-0314","OBJECT_ID":"2021-075AB","EPOCH":"2025-09-05T05:53:48.854112","MEAN_MOTION":13.1764819,"ECCENTRICITY":0.00019275,"INCLINATION":87.904,"RA_OF_ASC_NODE":62.5202,"ARG_OF_PERICENTER":101.1408,"MEAN_ANOMALY":258.994,"EPHEMERIS_TYPE":0,"CLASSIFICATION_TYPE":"U","NORAD_CAT_ID":49100,"ELEMENT_SET_NO":999,"REV_AT_EPOCH":19604,"BSTAR":9.2816932e-5,"MEAN_MOTION_DOT":4.9e-7,"MEAN_MOTION_DDOT":0},{"OBJECT_NAME":"ONEWEB-0315","OBJECT_ID":"2021-075AC","EPOCH":"2025-09-05T03:48:25.844544","MEAN_MOTION":13.12442717,"ECCENTRICITY":0.0002106,"INCLINATION":87.888,"RA_OF_ASC_NODE":47.2775,"ARG_OF_PERICENTER":92.7833,"MEAN_ANOMALY":267.3537,"EPHEMERIS_TYPE":0,"CLASSIFICATION_TYPE":"U","NORAD_CAT_ID":49101,"ELEMENT_SET_NO":999,"REV_AT_EPOCH":19778,"BSTAR":-0.0010651341,"MEAN_MOTION_DOT":-3.7e-6,"MEAN_MOTION_DDOT":0},{"OBJECT_NAME":"ONEWEB-0316","OBJECT_ID":"2021-075AD","EPOCH":"2025-09-05T04:00:04.590720","MEAN_MOTION":13.18685038,"ECCENTRICITY":0.0001969,"INCLINATION":87.9174,"RA_OF_ASC_NODE":32.0662,"ARG_OF_PERICENTER":94.2954,"MEAN_ANOMALY":265.8403,"EPHEMERIS_TYPE":0,"CLASSIFICATION_TYPE":"U","NORAD_CAT_ID":49102,"ELEMENT_SET_NO":999,"REV_AT_EPOCH":19964,"BSTAR":0.00022564986,"MEAN_MOTION_DOT":1.02e-6,"MEAN_MOTION_DDOT":0},{"OBJECT_NAME":"ONEWEB-0317","OBJECT_ID":"2021-075AE","EPOCH":"2025-09-05T03:39:05.715936","MEAN_MOTION":13.12443055,"ECCENTRICITY":9.318e-5,"INCLINATION":87.8884,"RA_OF_ASC_NODE":47.2932,"ARG_OF_PERICENTER":107.0115,"MEAN_ANOMALY":253.1116,"EPHEMERIS_TYPE":0,"CLASSIFICATION_TYPE":"U","NORAD_CAT_ID":49103,"ELEMENT_SET_NO":999,"REV_AT_EPOCH":19780,"BSTAR":-0.00045011103,"MEAN_MOTION_DOT":-1.49e-6,"MEAN_MOTION_DDOT":0}]
