ONEWEB-0298             
1 49087U 21075N   25248.20365781  .00000072  00000+0  15209-3 0  9994
2 49087  87.9024  62.5685 0001766  89.2594 270.8740 13.17650708196090
ONEWEB-0299             
1 49088U 21075P   25248.20520621 -.00000044  00000+0 -14570-3 0  9992
2 49088  87.9038  62.5241 0001976  92.1627 267.9730 13.17649629196071
ONEWEB-0300             
1 49089U 21075Q   25248.20568681  .00000459  00000+0  12402-2 0  9990
2 49089  87.8881  47.2754 0001846  83.3952 276.7387 13.12441968197826
ONEWEB-0301             
1 49090U 21075R   25248.18946224  .00000291  00000+0  77476-3 0  9999
2 49090  87.8882  47.2832 0001880  80.2958 279.8382 13.12444568197183
ONEWEB-0302             
1 49091U 21075S   25248.17647275 -.00000195  00000+0 -57630-3 0  9998
2 49091  87.8885  47.2917 0001612 106.1699 253.9607 13.12444916197162
ONEWEB-0304             
1 49092U 21075T   25248.02802438 -.00000054  00000+0 -17137-3 0  9999
2 49092  87.9037  62.5904 0001848  94.4704 265.6638 13.17648585196027
ONEWEB-0305             
1 49093U 21075U   25248.24907610  .00000133  00000+0  30904-3 0  9995
2 49093  87.9039  62.5228 0002085  98.8920 261.2448 13.17650859196085
ONEWEB-0308             
1 49094U 21075V   25248.16999061 -.00000341  00000+0 -98438-3 0  9997
2 49094  87.8887  47.2847 0001717  92.8806 267.2519 13.12444109197171
ONEWEB-0309             
1 49095U 21075W   25248.25244801  .00000053  00000+0  10259-3 0  9996
2 49095  87.9034  62.5395 0001522 104.3549 255.7751 13.17648340196056
ONEWEB-0310             
1 49096U 21075X   25248.18459056  .00000092  00000+0  22053-3 0  9997
2 49096  87.8880  47.3272 0001643  96.6718 263.4598 13.12444560197807
ONEWEB-0311             
1 49097U 21075Y   25248.18326624  .00000156  00000+0  36741-3 0  9992
2 49097  87.9030  62.5513 0002092  95.1688 264.9683 13.17649149196098
ONEWEB-0312             
1 49098U 21075Z   25248.04658189  .00000020  00000+0  19315-4 0  9991
2 49098  87.9029  62.6108 0001875 101.8439 258.2903 13.17647614196057
ONEWEB-0313             
1 49099U 21075AA  25248.20338981  .00000023  00000+0  26180-4 0  9996
2 49099  87.9021  62.5913 0001820  92.8031 267.3309 13.17649086196067
ONEWEB-0314             
1 49100U 21075AB  25248.24570433  .00000049  00000+0  92817-4 0  9991
2 49100  87.9040  62.5202 0001927 101.1408 258.9940 13.17648190196042
ONEWEB-0315             
1 49101U 21075AC  25248.15863246 -.00000370  00000+0 -10651-2 0  9992
2 49101  87.8880  47.2775 0002106  92.7833 267.3537 13.12442717197786
ONEWEB-0316             
1 49102U 21075AD  25248.16671980  .00000102  00000+0  22565-3 0  9995
2 49102  87.9174  32.0662 0001969  94.2954 265.8403 13.18685038199641
ONEWEB-0317             
1 49103U 21075AE  25248.15214949 -.00000149  00000+0 -45011-3 0  9997
2 49103  87.8884  47.2932 0000931 107.0115 253.1116 13.12443055197809
